0 SCOUT G-1 R/B
1 17071U 86088B   13282.44822729  .00000080  00000-0  71401-4 0   165
2 17071 089.5385 024.9343 0038491 188.3456 218.7236 13.74852494349306
0 SCOUT G-1 R/B
1 17071U 86088B   13287.18169315  .00000097  00000-0  89213-4 0   186
2 17071 089.5390 024.7042 0038973 174.3315 246.6104 13.74852860349952
0 SCOUT G-1 R/B
1 17071U 86088B   13289.36151473  .00000116  00000-0  10956-3 0   194
2 17071 089.5389 024.5985 0039157 167.9850 235.3486 13.74853401350256
0 SCOUT G-1 R/B
1 17071U 86088B   13291.40049164  .00000130  00000-0  12406-3 0   205
2 17071 089.5386 024.4997 0039373 161.9611 247.0858 13.74853916350539
0 SCOUT G-1 R/B
1 17071U 86088B   13293.82273251  .00000118  00000-0  11138-3 0   217
2 17071 089.5384 024.3822 0039571 154.8998 355.6623 13.74854513350868
0 SCOUT G-1 R/B
1 17071U 86088B   13296.20604598  .00000104  00000-0  96122-4 0   227
2 17071 089.5385 024.2663 0039727 148.0220 271.5084 13.74855251351191
